ONEWEB-0683             
1 56719U 23068K   24138.48212061 -.00000024  00000+0 -97922-4 0  9999
2 56719  87.9058  50.5571 0001994  69.7082 290.4263 13.15548355 49408
ONEWEB-0684             
1 56720U 23068L   24138.49004847 -.00000023  00000+0 -93944-4 0  9992
2 56720  87.9059  50.6318 0003163 102.3246 257.8239 13.15547600 49230
ONEWEB-0686             
1 56721U 23068M   24138.36211600  .00000152  00000+0  36311-3 0  9991
2 56721  87.9131  20.2791 0001975  81.8242 278.3113 13.16594855 51604
ONEWEB-0694             
1 56722U 23068N   24138.39493829 -.00000032  00000+0 -11831-3 0  9999
2 56722  87.9131  20.1908 0001956  66.8847 293.2489 13.16006813 51667
ONEWEB-0696             
1 56723U 23068P   24138.52331690  .00000106  00000+0  24867-3 0  9995
2 56723  87.9057  50.5995 0001833  88.3704 271.7636 13.15545893 50055
ONEWEB-0703             
1 56724U 23068Q   24138.45676386  .00000122  00000+0  29022-3 0  9998
2 56724  87.9058  50.6336 0001799 120.2741 239.8568 13.15546980 49230
ONEWEB-0721             
1 56725U 23068R   24138.52529857  .00003477  00000+0  40453-3 0  9994
2 56725  86.6781 348.9103 0011790  32.0242 328.1697 14.84985296 53967
